EAGLEEYE                
1 60508U 24149AS  26132.80982735  .00048840  00000+0  49425-3 0  9995
2 60508  97.3724 224.3652 0001901  52.4399 307.7033 15.65152267 97391
FLOCK 4BE-29            
1 60509U 24149AT  26132.78317587  .00011007  00000+0  25193-3 0  9991
2 60509  97.3807 218.1572 0003845  82.2143 277.9541 15.42964850 96950
TRANSPORTER-11 OBJECT AU
1 60510U 24149AU  26132.76812736  .00009444  00000+0  24491-3 0  9999
2 60510  97.3729 216.2348 0004744  70.7768 289.3990 15.39215708 96861
FLOCK 4BE-2             
1 60511U 24149AV  26132.50430410  .00030002  00000+0  55392-3 0  9995
2 60511  97.3822 218.8924 0003601  81.7806 278.3853 15.49043680 96977
FLOCK 4BE-13            
1 60512U 24149AW  26132.83979773  .00009473  00000+0  23232-3 0  9998
2 60512  97.3721 216.9118 0004727  54.1018 306.0666 15.40921015 96923
FLOCK 4BE-27            
1 60513U 24149AX  26132.77651674  .00005749  00000+0  17815-3 0  9991
2 60513  97.3827 214.6285 0005324  79.4743 280.7099 15.33818390 96718
FLOCK 4BE-9             
1 60514U 24149AY  26132.81261235  .00010239  00000+0  26104-3 0  9998
2 60514  97.3790 216.7722 0003995  83.5061 276.6639 15.39718262 96872
FLOCK 4BE-6             
1 60516U 24149BA  26132.81457302  .00009249  00000+0  24480-3 0  9996
2 60516  97.3790 216.1967 0004738  79.3165 280.8613 15.38593340 96835
FLOCK 4BE-14            
1 60517U 24149BB  26132.69918240  .00010868  00000+0  27536-3 0  9990
2 60517  97.3696 216.1889 0005568  76.4524 283.7342 15.39883259 96869
FLOCK 4BE-1             
1 60518U 24149BC  26132.81595225  .00010413  00000+0  25114-3 0  9995
2 60518  97.3781 217.4597 0005071  76.2843 283.8968 15.41398433 96926
FLOCK 4BE-28            
1 60519U 24149BD  26132.68792345  .00012154  00000+0  27157-3 0  9996
2 60519  97.3746 217.9467 0005147  71.2028 288.9778 15.43651765 96964
IPERDRONE.0             
1 60520U 24149BE  26132.79929896  .00042819  00000+0  49199-3 0  9994
2 60520  97.3774 224.4050 0001585  42.2461 317.8918 15.61925614 97381
TRANSPORTER-11 OBJECT BF
1 60521U 24149BF  26132.80202056  .00095901  00000+0  71307-3 0  9995
2 60521  97.3780 226.3819 0000644 327.6294  32.4930 15.72534341 97505
CONNECTA IOT-2          
1 60522U 24149BG  26132.65419088  .00002898  00000+0  12372-3 0  9994
2 60522  97.3843 211.3465 0008168  91.5878 268.6295 15.23662682 96480
PTD-R (TYVAK-0127)      
1 60523U 24149BH  26132.82635206  .00134543  00000+0  49607-3 0  9990
2 60523  97.3772 230.4363 0001314 221.7677 138.3495 15.87865500 97795
CONNECTA IOT-4          
1 60524U 24149BJ  26132.50317756  .00010944  00000+0  26890-3 0  9990
2 60524  97.3798 216.4898 0006236  69.1843 291.0071 15.40814258 96832
ORESAT0.5               
1 60525U 24149BK  26132.67604867  .00012255  00000+0  27296-3 0  9999
2 60525  97.3718 218.1721 0006180  58.9810 301.2044 15.43738333 96990
DEIMOS                  
1 60526U 24149BL  26132.81911103  .00011494  00000+0  26301-3 0  9990
2 60526  97.3779 218.4735 0006316  64.1888 296.0011 15.42949061 96997
CUAVA-2                 
1 60527U 24149BM  26132.76639928  .00007925  00000+0  23343-3 0  9994
2 60527  97.3726 214.2492 0007857  67.6328 292.5747 15.35286702 96739
ERNST                   
1 60528U 24149BN  26132.79246507  .00008994  00000+0  24062-3 0  9991
2 60528  97.3808 216.2742 0007233  71.2802 288.9228 15.38257170 96831
TORO                    
1 60530U 24149BQ  26132.66453648  .00000901  00000+0  84825-4 0  9990
2 60530  97.6789 207.9978 0001591  96.1485 263.9918 14.96286998 94646
HYPSO-2                 
1 60531U 24149BR  26132.21379606  .00001636  00000+0  14130-3 0  9990
2 60531  97.6817 209.0009 0002185 112.1927 247.9528 14.98606515 94661
LEMU NGE                
1 60532U 24149BS  26132.64169257  .00001179  00000+0  11355-3 0  9995
2 60532  97.6847 208.3221 0002541 112.8262 247.3227 14.94802808 94645
LEMUR-2-STELLA          
1 60533U 24149BT  26132.86011867  .00006871  00000+0  41510-3 0  9993
2 60533  97.6733 215.1847 0001912 123.4756 236.6656 15.11013648 95168
SATELIOT_2              
1 60534U 24149BU  26132.44956073  .00000658  00000+0  63335-4 0  9992
2 60534  97.6833 208.0597 0001345 108.4293 251.7075 14.96226628 94621
NIGHTJAR                
1 60535U 24149BV  26132.47732119  .00001791  00000+0  15347-3 0  9997
2 60535  97.6838 209.6844 0001265 153.6792 206.4495 14.98801682137527
LEMUR-2-MARHISYAM       
1 60536U 24149BW  26132.69555764  .00006742  00000+0  41312-3 0  9993
2 60536  97.6876 215.4311 0001495 191.8022 168.3172 15.10501681 95127
SATELIOT_4              
1 60537U 24149BX  26132.46777625  .00001131  00000+0  10451-3 0  9998
2 60537  97.6737 207.6296 0003002 132.3060 227.8416 14.96532627 94631
PICO-02A021             
1 60538U 24149BY  26132.48364161  .00003066  00000+0  23290-3 0  9992
2 60538  97.6769 211.6337 0006722 128.8517 231.3309 15.02908779 94372
ICEYE-X43               
1 60539U 24149BZ  26132.80042686  .00001682  00000+0  14093-3 0  9997
2 60539  97.6770 210.2540 0004493 199.9066 160.1982 14.99745933 94818
