OBJECT_NAME,OBJECT_ID,EPOCH,MEAN_MOTION,ECCENTRICITY,INCLINATION,RA_OF_ASC_NODE,ARG_OF_PERICENTER,MEAN_ANOMALY,EPHEMERIS_TYPE,CLASSIFICATION_TYPE,NORAD_CAT_ID,ELEMENT_SET_NO,REV_AT_EPOCH,BSTAR,MEAN_MOTION_DOT,MEAN_MOTION_DDOT
EAGLEEYE,2024-149AS,2026-05-12T19:26:09.083040,15.65152267,.0001901,97.3724,224.3652,52.4399,307.7033,0,U,60508,999,9739,.49425E-3,.4884E-3,0
FLOCK 4BE-29,2024-149AT,2026-05-12T18:47:46.395168,15.42964850,.0003845,97.3807,218.1572,82.2143,277.9541,0,U,60509,999,9695,.25193E-3,.11007E-3,0
TRANSPORTER-11 OBJECT AU,2024-149AU,2026-05-12T18:26:06.203904,15.39215708,.0004744,97.3729,216.2348,70.7768,289.3990,0,U,60510,999,9686,.24491E-3,.9444E-4,0
FLOCK 4BE-2,2024-149AV,2026-05-12T12:06:11.874240,15.49043680,.0003601,97.3822,218.8924,81.7806,278.3853,0,U,60511,999,9697,.55392E-3,.30002E-3,0
FLOCK 4BE-13,2024-149AW,2026-05-12T20:09:18.523872,15.40921015,.0004727,97.3721,216.9118,54.1018,306.0666,0,U,60512,999,9692,.23232E-3,.9473E-4,0
FLOCK 4BE-27,2024-149AX,2026-05-12T18:38:11.046336,15.33818390,.0005324,97.3827,214.6285,79.4743,280.7099,0,U,60513,999,9671,.17815E-3,.5749E-4,0
FLOCK 4BE-9,2024-149AY,2026-05-12T19:30:09.707040,15.39718262,.0003995,97.3790,216.7722,83.5061,276.6639,0,U,60514,999,9687,.26104E-3,.10239E-3,0
FLOCK 4BE-6,2024-149BA,2026-05-12T19:32:59.108928,15.38593340,.0004738,97.3790,216.1967,79.3165,280.8613,0,U,60516,999,9683,.2448E-3,.9249E-4,0
FLOCK 4BE-14,2024-149BB,2026-05-12T16:46:49.359360,15.39883259,.0005568,97.3696,216.1889,76.4524,283.7342,0,U,60517,999,9686,.27536E-3,.10868E-3,0
FLOCK 4BE-1,2024-149BC,2026-05-12T19:34:58.274400,15.41398433,.0005071,97.3781,217.4597,76.2843,283.8968,0,U,60518,999,9692,.25114E-3,.10413E-3,0
FLOCK 4BE-28,2024-149BD,2026-05-12T16:30:36.586080,15.43651765,.0005147,97.3746,217.9467,71.2028,288.9778,0,U,60519,999,9696,.27157E-3,.12154E-3,0
IPERDRONE.0,2024-149BE,2026-05-12T19:10:59.430144,15.61925614,.0001585,97.3774,224.4050,42.2461,317.8918,0,U,60520,999,9738,.49199E-3,.42819E-3,0
TRANSPORTER-11 OBJECT BF,2024-149BF,2026-05-12T19:14:54.576384,15.72534341,.0000644,97.3780,226.3819,327.6294,32.4930,0,U,60521,999,9750,.71307E-3,.95901E-3,0
CONNECTA IOT-2,2024-149BG,2026-05-12T15:42:02.092032,15.23662682,.0008168,97.3843,211.3465,91.5878,268.6295,0,U,60522,999,9648,.12372E-3,.2898E-4,0
PTD-R (TYVAK-0127),2024-149BH,2026-05-12T19:49:56.817984,15.87865500,.0001314,97.3772,230.4363,221.7677,138.3495,0,U,60523,999,9779,.49607E-3,.134543E-2,0
CONNECTA IOT-4,2024-149BJ,2026-05-12T12:04:34.541184,15.40814258,.0006236,97.3798,216.4898,69.1843,291.0071,0,U,60524,999,9683,.2689E-3,.10944E-3,0
ORESAT0.5,2024-149BK,2026-05-12T16:13:30.605088,15.43738333,.000618,97.3718,218.1721,58.9810,301.2044,0,U,60525,999,9699,.27296E-3,.12255E-3,0
DEIMOS,2024-149BL,2026-05-12T19:39:31.192992,15.42949061,.0006316,97.3779,218.4735,64.1888,296.0011,0,U,60526,999,9699,.26301E-3,.11494E-3,0
CUAVA-2,2024-149BM,2026-05-12T18:23:36.897792,15.35286702,.0007857,97.3726,214.2492,67.6328,292.5747,0,U,60527,999,9673,.23343E-3,.7925E-4,0
ERNST,2024-149BN,2026-05-12T19:01:08.982048,15.38257170,.0007233,97.3808,216.2742,71.2802,288.9228,0,U,60528,999,9683,.24062E-3,.8994E-4,0
TORO,2024-149BQ,2026-05-12T15:56:55.951872,14.96286998,.0001591,97.6789,207.9978,96.1485,263.9918,0,U,60530,999,9464,.84825E-4,.901E-5,0
HYPSO-2,2024-149BR,2026-05-12T05:07:51.979584,14.98606515,.0002185,97.6817,209.0009,112.1927,247.9528,0,U,60531,999,9466,.1413E-3,.1636E-4,0
LEMU NGE,2024-149BS,2026-05-12T15:24:02.238048,14.94802808,.0002541,97.6847,208.3221,112.8262,247.3227,0,U,60532,999,9464,.11355E-3,.1179E-4,0
LEMUR-2-STELLA,2024-149BT,2026-05-12T20:38:34.253088,15.11013648,.0001912,97.6733,215.1847,123.4756,236.6656,0,U,60533,999,9516,.4151E-3,.6871E-4,0
SATELIOT_2,2024-149BU,2026-05-12T10:47:22.047072,14.96226628,.0001345,97.6833,208.0597,108.4293,251.7075,0,U,60534,999,9462,.63335E-4,.658E-5,0
NIGHTJAR,2024-149BV,2026-05-12T11:27:20.550816,14.98801682,.0001265,97.6838,209.6844,153.6792,206.4495,0,U,60535,999,13752,.15347E-3,.1791E-4,0
LEMUR-2-MARHISYAM,2024-149BW,2026-05-12T16:41:36.180096,15.10501681,.0001495,97.6876,215.4311,191.8022,168.3172,0,U,60536,999,9512,.41312E-3,.6742E-4,0
SATELIOT_4,2024-149BX,2026-05-12T11:13:35.868000,14.96532627,.0003002,97.6737,207.6296,132.3060,227.8416,0,U,60537,999,9463,.10451E-3,.1131E-4,0
PICO-02A021,2024-149BY,2026-05-12T11:36:26.635104,15.02908779,.0006722,97.6769,211.6337,128.8517,231.3309,0,U,60538,999,9437,.2329E-3,.3066E-4,0
ICEYE-X43,2024-149BZ,2026-05-12T19:12:36.880704,14.99745933,.0004493,97.6770,210.2540,199.9066,160.1982,0,U,60539,999,9481,.14093E-3,.1682E-4,0
